{
    "type": "FeatureCollection",
    "features": [
        {
            "type": "Feature",
            "properties": {
                "state": "Tamil Nadu",
                "code": "TN"
            },
            "geometry": {
                "type": "Polygon",
                "coordinates": [[
                    [76.2359619140625, 13.141003947178246],
                    [77.88726806640625, 13.090179355734864],
                    [78.97583007812499, 11.973349037503452],
                    [80.06439208984375, 13.154376055418515], 
                    [80.23315429687499, 13.187592498831863],
                    [80.19195556640625, 10.833305983642491],
                    [77.89276123046875, 8.302460275025861],
                    [77.73498535156249, 8.225906579760377],
                    [77.47100830078125, 8.241882343409684],
                    [77.32421875, 8.407168163601076],
                    [76.2359619140625, 13.141003947178246]
                ]]
            }
        },
        {
            "type": "Feature",
            "properties": {
                "state": "Kerala", 
                "code": "KL"
            },
            "geometry": {
                "type": "Polygon",
                "coordinates": [[
                    [75.41015625, 12.297068292853805],
                    [76.2359619140625, 13.141003947178246],
                    [77.32421875, 8.407168163601076],
                    [77.47100830078125, 8.241882343409684],
                    [76.81640625, 8.494104537551882],
                    [75.41015625, 12.297068292853805]
                ]]
            }
        },
        {
            "type": "Feature", 
            "properties": {
                "state": "Karnataka",
                "code": "KA"
            },
            "geometry": {
                "type": "Polygon",
                "coordinates": [[
                    [74.26025390625, 15.792253570362446],
                    [77.89276123046875, 15.792253570362446],
                    [77.88726806640625, 13.090179355734864],
                    [76.2359619140625, 13.141003947178246],
                    [75.41015625, 12.297068292853805],
                    [74.26025390625, 15.792253570362446]
                ]]
            }
        }
    ]
}

